     2.10           N: GPS NAV DATA                         RINEX VERSION / TYPE
RTKCONV 2.4.2                           20190220 192733 UTC PGM / RUN BY / DATE 
log: C:\Users\Anna\Documents\Linux\LOGZZZ\BINR_evening.bin  COMMENT             
format: NVS BINR                                            COMMENT             
                                                            END OF HEADER       
15 19  2 13 14  0  0.0 -.328027635813E-03  .170530256582E-11  .000000000000E+00
     .616800000000E+04 -.177812500000E+02  .561130525725E-08  .193883079254E+01
    -.981613993645E-06  .112117107492E-01  .821612775326E-05  .515363305473E+04
     .309600000000E+06 -.271946191788E-06  .896763633119E+00 -.113621354103E-06
     .928011329225E+00  .207468750000E+03  .763347995639E+00 -.848356766036E-08
    -.250010413937E-09  .100000000000E+01  .204000000000E+04  .000000000000E+00
     .240000000000E+01  .000000000000E+00 -.107102096081E-07  .240000000000E+02
     .302718000000E+06  .000000000000E+00
20 19  2 13 14  0  0.0  .522163212299E-03  .341060513165E-12  .000000000000E+00
     .462600000000E+04 -.122500000000E+02  .547165654799E-08  .351634416768E+00
    -.663101673126E-06  .440824718680E-02  .709481537342E-05  .515367020988E+04
     .309600000000E+06 -.614672899246E-07 -.176384379529E+00 -.391155481339E-07
     .930342301931E+00  .226656250000E+03  .227642750093E+01 -.856107088868E-08
     .314298806093E-09  .100000000000E+01  .204000000000E+04  .000000000000E+00
     .240000000000E+01  .000000000000E+00 -.838190317154E-08  .180000000000E+02
     .302718000000E+06  .000000000000E+00
 8 19  2 13 14  0  0.0 -.132606834173E-03 -.147792889038E-11  .000000000000E+00
     .123360000000E+05 -.411875000000E+02  .426874941645E-08 -.312893471102E+01
    -.207126140594E-05  .427015568130E-02  .614114105701E-05  .515369704247E+04
     .309600000000E+06 -.465661287308E-07 -.216723161771E+01  .372529029846E-07
     .970082051697E+00  .265250000000E+03 -.351434494383E+00 -.806533595362E-08
    -.553594488004E-10  .100000000000E+01  .204000000000E+04  .000000000000E+00
     .240000000000E+01  .000000000000E+00  .512227416039E-08  .480000000000E+02
     .302719000000E+06  .000000000000E+00
13 19  2 13 14  0  0.0 -.750683248043E-04  .125055521494E-11  .000000000000E+00
     .197890000000E+05 -.112500000000E+01  .458697663186E-08  .172085553352E+01
    -.119209289551E-06  .372648658231E-02  .926107168198E-05  .515366066933E+04
     .309600000000E+06 -.242143869400E-07  .110985872616E+01 -.130385160446E-06
     .967880945155E+00  .204000000000E+03  .137219495126E+01 -.793104464556E-08
    -.296083761649E-09  .100000000000E+01  .204000000000E+04  .000000000000E+00
     .240000000000E+01  .000000000000E+00 -.111758708954E-07  .770000000000E+02
     .302719000000E+06  .000000000000E+00
18 19  2 13 14  0  0.0  .255806371570E-04  .386535248253E-11  .000000000000E+00
     .899500000000E+04 -.340625000000E+02  .471519611550E-08  .429828319983E+00
    -.195391476154E-05  .150478025898E-01  .874325633049E-05  .515373562241E+04
     .309600000000E+06 -.240281224251E-06 -.115352753303E+01 -.372529029846E-07
     .952714542808E+00  .209500000000E+03  .137452344870E+01 -.841463621766E-08
     .182507602174E-09  .100000000000E+01  .204000000000E+04  .000000000000E+00
     .240000000000E+01  .000000000000E+00 -.605359673500E-08  .350000000000E+02
     .302719000000E+06  .000000000000E+00
 5 19  2 13 14  0  0.0  .107940286398E-05  .113686837722E-12  .000000000000E+00
     .213310000000E+05 -.120000000000E+02  .508235467600E-08 -.269353175444E+01
    -.800937414169E-06  .555263145361E-02  .746175646782E-05  .515362206459E+04
     .309600000000E+06  .335276126862E-07 -.835628564541E-01 -.139698386192E-06
     .949595945248E+00  .230343750000E+03  .713806495786E+00 -.819069831832E-08
     .287869133762E-09  .100000000000E+01  .204000000000E+04  .000000000000E+00
     .240000000000E+01  .000000000000E+00 -.111758708954E-07  .830000000000E+02
     .302719000000E+06  .000000000000E+00
11 19  2 13 14  0  0.0 -.660853445530E-03  .591171556152E-11  .000000000000E+00
     .190180000000E+05 -.539062500000E+02  .570916664638E-08 -.414136103917E-01
    -.296160578728E-05  .165537956636E-01  .786222517490E-05  .515368779755E+04
     .309600000000E+06 -.244006514549E-06 -.154495142415E+01 -.178813934326E-06
     .908160793388E+00  .202437500000E+03  .186210043207E+01 -.897394522941E-08
     .135719938995E-09  .100000000000E+01  .204000000000E+04  .000000000000E+00
     .240000000000E+01  .000000000000E+00 -.121071934700E-07  .740000000000E+02
     .302719000000E+06  .000000000000E+00
30 19  2 13 14  0  0.0 -.520222820342E-04 -.636646291241E-11  .000000000000E+00
     .233870000000E+05  .749687500000E+02  .487841754840E-08  .443604072404E-01
     .367499887943E-05  .366514059715E-02  .891461968422E-05  .515363198090E+04
     .309600000000E+06  .353902578354E-07  .208079145156E+01  .242143869400E-07
     .941538131025E+00  .195062500000E+03 -.302348591546E+01 -.830463163553E-08
    -.199294015681E-09  .100000000000E+01  .204000000000E+04  .000000000000E+00
     .240000000000E+01  .000000000000E+00  .372529029846E-08  .910000000000E+02
     .302719000000E+06  .000000000000E+00
 7 19  2 13 14  0  0.0  .333138741553E-04 -.716227077646E-11  .000000000000E+00
     .190180000000E+05  .743125000000E+02  .465447949280E-08  .311882694480E-01
     .387616455555E-05  .122195401927E-01  .877864658833E-05  .515361523056E+04
     .309600000000E+06  .447034835815E-07  .205106773573E+01  .150874257088E-06
     .956027856226E+00  .205906250000E+03 -.247860653625E+01 -.832141804903E-08
    -.207508643568E-09  .100000000000E+01  .204000000000E+04  .000000000000E+00
     .240000000000E+01  .000000000000E+00 -.111758708954E-07  .740000000000E+02
     .302719000000E+06  .000000000000E+00
28 19  2 13 14  0  0.0  .764478445053E-03  .795807864051E-12  .000000000000E+00
     .179900000000E+05  .477187500000E+02  .398159456794E-08 -.261652071851E+01
     .247359275818E-05  .193099384196E-01  .439397990704E-05  .515370065117E+04
     .309600000000E+06  .178813934326E-06 -.311136941853E+01  .391155481339E-07
     .983543531279E+00  .305937500000E+03 -.147414726289E+01 -.771139263903E-08
    -.714315468392E-11  .100000000000E+01  .204000000000E+04  .000000000000E+00
     .240000000000E+01  .000000000000E+00 -.111758708954E-07  .700000000000E+02
     .302719000000E+06  .000000000000E+00
17 19  2 13 14  0  0.0  .922149047256E-05  .545696821064E-11  .000000000000E+00
     .179900000000E+05 -.661250000000E+02  .382980236066E-08  .278413584627E+01
    -.332295894623E-05  .129904984497E-01  .617653131485E-05  .515369666481E+04
     .309600000000E+06  .130385160446E-06 -.210112621913E+01 -.521540641785E-07
     .983766027952E+00  .269156250000E+03 -.172274047421E+01 -.770460664208E-08
    -.122862260563E-09  .100000000000E+01  .204000000000E+04  .000000000000E+00
     .240000000000E+01  .000000000000E+00 -.111758708954E-07  .700000000000E+02
     .302719000000E+06  .000000000000E+00
24 19  2 13 14  0  0.0 -.621117651463E-04 -.568434188608E-12  .000000000000E+00
     .131070000000E+05  .620625000000E+02  .499342190860E-08  .951895577860E+00
     .344403088093E-05  .816986314021E-02  .973232090473E-05  .515373414612E+04
     .309600000000E+06 -.596046447754E-07  .198684878318E+01  .104308128357E-06
     .939133299974E+00  .178218750000E+03  .594741691139E+00 -.834249035535E-08
    -.275011455331E-09  .100000000000E+01  .204000000000E+04  .000000000000E+00
     .240000000000E+01  .000000000000E+00  .279396772385E-08  .510000000000E+02
     .302988000000E+06  .000000000000E+00
10 19  2 13 14  0  0.0  .117548272014E-03 -.750333128963E-11  .000000000000E+00
     .280130000000E+05 -.144062500000E+02  .472269705981E-08 -.138268232716E+01
    -.802800059319E-06  .432205351535E-02  .711344182491E-05  .515366031265E+04
     .309600000000E+06  .447034835815E-07 -.614371743278E-01  .167638063431E-07
     .962764877787E+00  .241281250000E+03 -.275322960110E+01 -.811176645906E-08
     .306084178206E-09  .100000000000E+01  .204000000000E+04  .000000000000E+00
     .240000000000E+01  .000000000000E+00  .186264514923E-08  .109000000000E+03
     .303079000000E+06  .000000000000E+00
10 19  2 13 13 59 44.0  .117549210787E-03 -.750333128963E-11  .000000000000E+00
     .771000000000E+03 -.144062500000E+02  .472269705981E-08 -.138501624765E+01
    -.802800059319E-06  .432204524986E-02  .711344182491E-05  .515366030693E+04
     .309584000000E+06  .447034835815E-07 -.614370397393E-01  .167638063431E-07
     .962764890954E+00  .241281250000E+03 -.275322944457E+01 -.811176645906E-08
     .306084178206E-09  .100000000000E+01  .204000000000E+04  .000000000000E+00
     .240000000000E+01  .000000000000E+00  .186264514923E-08  .300000000000E+01
     .303169000000E+06  .000000000000E+00
